CCSDS_OMM_VERS = 2.0
CREATION_DATE  = 
ORIGINATOR     = 

OBJECT_NAME    = STARLINK-36784
OBJECT_ID      = 2026-034AD
CENTER_NAME    = EARTH
REF_FRAME      = TEME
TIME_SYSTEM    = UTC
MEAN_ELEMENT_THEORY = SGP/SGP4

EPOCH          = 2026-03-01T06:00:00.999648
MEAN_MOTION    = 15.85947061
ECCENTRICITY   = .00007189
INCLINATION    = 53.1486
RA_OF_ASC_NODE = 253.4440
ARG_OF_PERICENTER = 69.1227
MEAN_ANOMALY   = 333.7087

EPHEMERIS_TYPE = 0
CLASSIFICATION_TYPE = U
NORAD_CAT_ID   = 67877
ELEMENT_SET_NO = 999
REV_AT_EPOCH   = 250
BSTAR          = -.64847956E-2
MEAN_MOTION_DOT = -.1418065E-1
MEAN_MOTION_DDOT = 0

CCSDS_OMM_VERS = 2.0
CREATION_DATE  = 
ORIGINATOR     = 

OBJECT_NAME    = STARLINK-36689
OBJECT_ID      = 2026-034AE
CENTER_NAME    = EARTH
REF_FRAME      = TEME
TIME_SYSTEM    = UTC
MEAN_ELEMENT_THEORY = SGP/SGP4

EPOCH          = 2026-03-01T06:00:00.999648
MEAN_MOTION    = 15.86115928
ECCENTRICITY   = .00007146
INCLINATION    = 53.1487
RA_OF_ASC_NODE = 253.4373
ARG_OF_PERICENTER = 75.0098
MEAN_ANOMALY   = 331.0482

EPHEMERIS_TYPE = 0
CLASSIFICATION_TYPE = U
NORAD_CAT_ID   = 67878
ELEMENT_SET_NO = 999
REV_AT_EPOCH   = 250
BSTAR          = -.64130784E-2
MEAN_MOTION_DOT = -.1414632E-1
MEAN_MOTION_DDOT = 0

CCSDS_OMM_VERS = 2.0
CREATION_DATE  = 
ORIGINATOR     = 

OBJECT_NAME    = STARLINK-36818
OBJECT_ID      = 2026-035A
CENTER_NAME    = EARTH
REF_FRAME      = TEME
TIME_SYSTEM    = UTC
MEAN_ELEMENT_THEORY = SGP/SGP4

EPOCH          = 2026-03-01T06:00:00.999648
MEAN_MOTION    = 16.04068742
ECCENTRICITY   = .00009163
INCLINATION    = 97.2811
RA_OF_ASC_NODE = 351.8862
ARG_OF_PERICENTER = 109.7299
MEAN_ANOMALY   = 201.6408

EPHEMERIS_TYPE = 0
CLASSIFICATION_TYPE = U
NORAD_CAT_ID   = 67879
ELEMENT_SET_NO = 999
REV_AT_EPOCH   = 239
BSTAR          = -.99837274E-3
MEAN_MOTION_DOT = -.640549E-2
MEAN_MOTION_DDOT = .15017E-3

CCSDS_OMM_VERS = 2.0
CREATION_DATE  = 
ORIGINATOR     = 

OBJECT_NAME    = STARLINK-36821
OBJECT_ID      = 2026-035B
CENTER_NAME    = EARTH
REF_FRAME      = TEME
TIME_SYSTEM    = UTC
MEAN_ELEMENT_THEORY = SGP/SGP4

EPOCH          = 2026-03-01T06:00:00.999648
MEAN_MOTION    = 16.04274204
ECCENTRICITY   = .00008666
INCLINATION    = 97.2809
RA_OF_ASC_NODE = 351.8883
ARG_OF_PERICENTER = 103.0996
MEAN_ANOMALY   = 212.4914

EPHEMERIS_TYPE = 0
CLASSIFICATION_TYPE = U
NORAD_CAT_ID   = 67880
ELEMENT_SET_NO = 999
REV_AT_EPOCH   = 239
BSTAR          = -.98483055E-3
MEAN_MOTION_DOT = -.639665E-2
MEAN_MOTION_DDOT = .15016224E-3

CCSDS_OMM_VERS = 2.0
CREATION_DATE  = 
ORIGINATOR     = 

OBJECT_NAME    = STARLINK-36808
OBJECT_ID      = 2026-035C
CENTER_NAME    = EARTH
REF_FRAME      = TEME
TIME_SYSTEM    = UTC
MEAN_ELEMENT_THEORY = SGP/SGP4

EPOCH          = 2026-03-01T06:00:00.999648
MEAN_MOTION    = 16.04139319
ECCENTRICITY   = .00008997
INCLINATION    = 97.2808
RA_OF_ASC_NODE = 351.8870
ARG_OF_PERICENTER = 110.7621
MEAN_ANOMALY   = 202.1855

EPHEMERIS_TYPE = 0
CLASSIFICATION_TYPE = U
NORAD_CAT_ID   = 67881
ELEMENT_SET_NO = 999
REV_AT_EPOCH   = 239
BSTAR          = -.98840173E-3
MEAN_MOTION_DOT = -.636846E-2
MEAN_MOTION_DDOT = .14868328E-3

CCSDS_OMM_VERS = 2.0
CREATION_DATE  = 
ORIGINATOR     = 

OBJECT_NAME    = STARLINK-36817
OBJECT_ID      = 2026-035D
CENTER_NAME    = EARTH
REF_FRAME      = TEME
TIME_SYSTEM    = UTC
MEAN_ELEMENT_THEORY = SGP/SGP4

EPOCH          = 2026-03-01T06:00:00.999648
MEAN_MOTION    = 16.04535599
ECCENTRICITY   = .00009527
INCLINATION    = 97.2804
RA_OF_ASC_NODE = 351.8904
ARG_OF_PERICENTER = 112.3300
MEAN_ANOMALY   = 208.4171

EPHEMERIS_TYPE = 0
CLASSIFICATION_TYPE = U
NORAD_CAT_ID   = 67882
ELEMENT_SET_NO = 999
REV_AT_EPOCH   = 239
BSTAR          = -.98187831E-3
MEAN_MOTION_DOT = -.647779E-2
MEAN_MOTION_DDOT = .15422737E-3

CCSDS_OMM_VERS = 2.0
CREATION_DATE  = 
ORIGINATOR     = 

OBJECT_NAME    = STARLINK-36856
OBJECT_ID      = 2026-035E
CENTER_NAME    = EARTH
REF_FRAME      = TEME
TIME_SYSTEM    = UTC
MEAN_ELEMENT_THEORY = SGP/SGP4

EPOCH          = 2026-03-01T06:00:00.999648
MEAN_MOTION    = 16.04416109
ECCENTRICITY   = .00008407
INCLINATION    = 97.2806
RA_OF_ASC_NODE = 351.8893
ARG_OF_PERICENTER = 107.4182
MEAN_ANOMALY   = 210.9400

EPHEMERIS_TYPE = 0
CLASSIFICATION_TYPE = U
NORAD_CAT_ID   = 67883
ELEMENT_SET_NO = 999
REV_AT_EPOCH   = 239
BSTAR          = -.98825827E-3
MEAN_MOTION_DOT = -.647326E-2
MEAN_MOTION_DDOT = .15380069E-3

CCSDS_OMM_VERS = 2.0
CREATION_DATE  = 
ORIGINATOR     = 

OBJECT_NAME    = STARLINK-36842
OBJECT_ID      = 2026-035F
CENTER_NAME    = EARTH
REF_FRAME      = TEME
TIME_SYSTEM    = UTC
MEAN_ELEMENT_THEORY = SGP/SGP4

EPOCH          = 2026-03-01T06:00:00.999648
MEAN_MOTION    = 16.04650879
ECCENTRICITY   = .00008342
INCLINATION    = 97.2805
RA_OF_ASC_NODE = 351.8912
ARG_OF_PERICENTER = 107.0299
MEAN_ANOMALY   = 215.9286

EPHEMERIS_TYPE = 0
CLASSIFICATION_TYPE = U
NORAD_CAT_ID   = 67884
ELEMENT_SET_NO = 999
REV_AT_EPOCH   = 239
BSTAR          = -.99284916E-3
MEAN_MOTION_DOT = -.659497E-2
MEAN_MOTION_DDOT = .1596963E-3

CCSDS_OMM_VERS = 2.0
CREATION_DATE  = 
ORIGINATOR     = 

OBJECT_NAME    = STARLINK-36826
OBJECT_ID      = 2026-035G
CENTER_NAME    = EARTH
REF_FRAME      = TEME
TIME_SYSTEM    = UTC
MEAN_ELEMENT_THEORY = SGP/SGP4

EPOCH          = 2026-03-01T06:00:00.999648
MEAN_MOTION    = 16.04737978
ECCENTRICITY   = .00008967
INCLINATION    = 97.2802
RA_OF_ASC_NODE = 351.8920
ARG_OF_PERICENTER = 111.6449
MEAN_ANOMALY   = 213.0339

EPHEMERIS_TYPE = 0
CLASSIFICATION_TYPE = U
NORAD_CAT_ID   = 67885
ELEMENT_SET_NO = 999
REV_AT_EPOCH   = 239
BSTAR          = -.99294633E-3
MEAN_MOTION_DOT = -.663012E-2
MEAN_MOTION_DDOT = .16145872E-3

CCSDS_OMM_VERS = 2.0
CREATION_DATE  = 
ORIGINATOR     = 

OBJECT_NAME    = STARLINK-36390
OBJECT_ID      = 2026-035H
CENTER_NAME    = EARTH
REF_FRAME      = TEME
TIME_SYSTEM    = UTC
MEAN_ELEMENT_THEORY = SGP/SGP4

EPOCH          = 2026-03-01T06:00:00.999648
MEAN_MOTION    = 16.04885767
ECCENTRICITY   = .00007896
INCLINATION    = 97.2802
RA_OF_ASC_NODE = 351.8931
ARG_OF_PERICENTER = 103.5325
MEAN_ANOMALY   = 223.8683

EPHEMERIS_TYPE = 0
CLASSIFICATION_TYPE = U
NORAD_CAT_ID   = 67886
ELEMENT_SET_NO = 999
REV_AT_EPOCH   = 244
BSTAR          = -.10211487E-2
MEAN_MOTION_DOT = -.687793E-2
MEAN_MOTION_DDOT = .17320051E-3

CCSDS_OMM_VERS = 2.0
CREATION_DATE  = 
ORIGINATOR     = 

OBJECT_NAME    = STARLINK-36368
OBJECT_ID      = 2026-035J
CENTER_NAME    = EARTH
REF_FRAME      = TEME
TIME_SYSTEM    = UTC
MEAN_ELEMENT_THEORY = SGP/SGP4

EPOCH          = 2026-03-01T06:00:00.999648
MEAN_MOTION    = 16.05024270
ECCENTRICITY   = .00008375
INCLINATION    = 97.2800
RA_OF_ASC_NODE = 351.8942
ARG_OF_PERICENTER = 106.0408
MEAN_ANOMALY   = 223.9344

EPHEMERIS_TYPE = 0
CLASSIFICATION_TYPE = U
NORAD_CAT_ID   = 67887
ELEMENT_SET_NO = 999
REV_AT_EPOCH   = 239
BSTAR          = -.10520241E-2
MEAN_MOTION_DOT = -.714384E-2
MEAN_MOTION_DDOT = .18619295E-3

CCSDS_OMM_VERS = 2.0
CREATION_DATE  = 
ORIGINATOR     = 

OBJECT_NAME    = STARLINK-36801
OBJECT_ID      = 2026-035K
CENTER_NAME    = EARTH
REF_FRAME      = TEME
TIME_SYSTEM    = UTC
MEAN_ELEMENT_THEORY = SGP/SGP4

EPOCH          = 2026-03-01T06:00:00.999648
MEAN_MOTION    = 16.05166663
ECCENTRICITY   = .00008494
INCLINATION    = 97.2800
RA_OF_ASC_NODE = 351.8953
ARG_OF_PERICENTER = 120.0091
MEAN_ANOMALY   = 212.4400

EPHEMERIS_TYPE = 0
CLASSIFICATION_TYPE = U
NORAD_CAT_ID   = 67888
ELEMENT_SET_NO = 999
REV_AT_EPOCH   = 239
BSTAR          = -.10587472E-2
MEAN_MOTION_DOT = -.725103E-2
MEAN_MOTION_DDOT = .19176013E-3

