STARLINK-36784          
1 67877U 26034AD  26060.25001157 -.01418065  00000+0 -64848-2 0  9993
2 67877  53.1486 253.4440 0000718  69.1227 333.7087 15.85947061  2503
STARLINK-36689          
1 67878U 26034AE  26060.25001157 -.01414632  00000+0 -64131-2 0  9995
2 67878  53.1487 253.4373 0000714  75.0098 331.0482 15.86115928  2508
STARLINK-36818          
1 67879U 26035A   26060.25001157 -.00640549  15017-3 -99837-3 0  9994
2 67879  97.2811 351.8862 0000916 109.7299 201.6408 16.04068742  2396
STARLINK-36821          
1 67880U 26035B   26060.25001157 -.00639665  15016-3 -98483-3 0  9998
2 67880  97.2809 351.8883 0000866 103.0996 212.4914 16.04274204  2397
STARLINK-36808          
1 67881U 26035C   26060.25001157 -.00636846  14868-3 -98840-3 0  9998
2 67881  97.2808 351.8870 0000899 110.7621 202.1855 16.04139319  2396
STARLINK-36817          
1 67882U 26035D   26060.25001157 -.00647779  15423-3 -98188-3 0  9999
2 67882  97.2804 351.8904 0000952 112.3300 208.4171 16.04535599  2393
STARLINK-36856          
1 67883U 26035E   26060.25001157 -.00647326  15380-3 -98826-3 0  9999
2 67883  97.2806 351.8893 0000840 107.4182 210.9400 16.04416109  2390
STARLINK-36842          
1 67884U 26035F   26060.25001157 -.00659497  15970-3 -99285-3 0  9997
2 67884  97.2805 351.8912 0000834 107.0299 215.9286 16.04650879  2391
STARLINK-36826          
1 67885U 26035G   26060.25001157 -.00663012  16146-3 -99295-3 0  9993
2 67885  97.2802 351.8920 0000896 111.6449 213.0339 16.04737978  2398
STARLINK-36390          
1 67886U 26035H   26060.25001157 -.00687793  17320-3 -10211-2 0  9991
2 67886  97.2802 351.8931 0000789 103.5325 223.8683 16.04885767  2442
STARLINK-36368          
1 67887U 26035J   26060.25001157 -.00714384  18619-3 -10520-2 0  9994
2 67887  97.2800 351.8942 0000837 106.0408 223.9344 16.05024270  2391
STARLINK-36801          
1 67888U 26035K   26060.25001157 -.00725103  19176-3 -10587-2 0  9998
2 67888  97.2800 351.8953 0000849 120.0091 212.4400 16.05166663  2390
